{"type": "FeatureCollection", "features": [ {"type": "Feature", "properties": {"norad_id": 66494, "name": "STARLINK-35689", "group": "last-30-days", "lat": -7.184119277018629, "lon": 111.31654633348664, "alt_km": 438.058275611289, "timestamp": "2025-12-13T18:50:03.171928+00:00", "meta": {"OBJECT_NAME": "STARLINK-35689", "OBJECT_ID": "2025-263K", "EPOCH": "2025-12-13T06:00:02.000160", "MEAN_MOTION": 15.45170914, "ECCENTRICITY": 0.00013028, "INCLINATION": 43.0002, "RA_OF_ASC_NODE": 122.1879, "ARG_OF_PERICENTER": 266.2531, "MEAN_ANOMALY": 347.4455, "EPHEMERIS_TYPE": 0, "CLASSIFICATION_TYPE": "U", "NORAD_CAT_ID": 66494, "ELEMENT_SET_NO": 999, "REV_AT_EPOCH": 571, "BSTAR": -0.04677824, "MEAN_MOTION_DOT": -0.0202321, "MEAN_MOTION_DDOT": 0}, "tle": {"line1": "1 66494U 25263K   25347.25002315 -.02023210  00000+0 -46778-1 0  9990", "line2": "2 66494  43.0002 122.1879 0001302 266.2531 347.4455 15.45170914  5713"}}, "geometry": {"type": "Point", "coordinates": [111.31654633348664, -7.184119277018629]}}, {"type": "Feature", "properties": {"norad_id": 66495, "name": "STARLINK-35832", "group": "last-30-days", "lat": 11.352892558695133, "lon": 131.46526945602085, "alt_km": 417.98097717178916, "timestamp": "2025-12-13T18:50:03.171938+00:00", "meta": {"OBJECT_NAME": "STARLINK-35832", "OBJECT_ID": "2025-263L", "EPOCH": "2025-12-12T19:33:21.941856", "MEAN_MOTION": 15.49798239, "ECCENTRICITY": 0.00024982, "INCLINATION": 42.9996, "RA_OF_ASC_NODE": 124.6875, "ARG_OF_PERICENTER": 262.5587, "MEAN_ANOMALY": 97.4989, "EPHEMERIS_TYPE": 0, "CLASSIFICATION_TYPE": "U", "NORAD_CAT_ID": 66495, "ELEMENT_SET_NO": 999, "REV_AT_EPOCH": 557, "BSTAR": -0.0060463366, "MEAN_MOTION_DOT": -0.00331191, "MEAN_MOTION_DDOT": 0}, "tle": {"line1": "1 66495U 25263L   25346.81483729 -.00331191  00000+0 -60463-2 0  9990", "line2": "2 66495  42.9996 124.6875 0002498 262.5587  97.4989 15.49798239  5572"}}, "geometry": {"type": "Point", "coordinates": [131.46526945602085, 11.352892558695133]}}, {"type": "Feature", "properties": {"norad_id": 66496, "name": "STARLINK-35909", "group": "last-30-days", "lat": 15.917270862433565, "lon": 136.8280193902682, "alt_km": 411.8165877815454, "timestamp": "2025-12-13T18:50:03.171948+00:00", "meta": {"OBJECT_NAME": "STARLINK-35909", "OBJECT_ID": "2025-263M", "EPOCH": "2025-12-13T01:43:42.940128", "MEAN_MOTION": 15.50640879, "ECCENTRICITY": 0.00011835, "INCLINATION": 42.9987, "RA_OF_ASC_NODE": 123.1774, "ARG_OF_PERICENTER": 286.9645, "MEAN_ANOMALY": 73.1085, "EPHEMERIS_TYPE": 0, "CLASSIFICATION_TYPE": "U", "NORAD_CAT_ID": 66496, "ELEMENT_SET_NO": 999, "REV_AT_EPOCH": 561, "BSTAR": 0.0022351404, "MEAN_MOTION_DOT": 0.00133333, "MEAN_MOTION_DDOT": 0}, "tle": {"line1": "1 66496U 25263M   25347.07202477  .00133333  00000+0  22351-2 0  9999", "line2": "2 66496  42.9987 123.1774 0001183 286.9645  73.1085 15.50640879  5611"}}, "geometry": {"type": "Point", "coordinates": [136.8280193902682, 15.917270862433565]}}, {"type": "Feature", "properties": {"norad_id": 66497, "name": "STARLINK-35899", "group": "last-30-days", "lat": 17.22518502261669, "lon": 138.43262301643696, "alt_km": 411.8298716785994, "timestamp": "2025-12-13T18:50:03.171958+00:00", "meta": {"OBJECT_NAME": "STARLINK-35899", "OBJECT_ID": "2025-263N", "EPOCH": "2025-12-12T17:59:25.949760", "MEAN_MOTION": 15.50614255, "ECCENTRICITY": 0.00016472, "INCLINATION": 42.9982, "RA_OF_ASC_NODE": 125.0558, "ARG_OF_PERICENTER": 278.6423, "MEAN_ANOMALY": 81.4251, "EPHEMERIS_TYPE": 0, "CLASSIFICATION_TYPE": "U", "NORAD_CAT_ID": 66497, "ELEMENT_SET_NO": 999, "REV_AT_EPOCH": 556, "BSTAR": 0.0016088279, "MEAN_MOTION_DOT": 0.00095318, "MEAN_MOTION_DDOT": 0}, "tle": {"line1": "1 66497U 25263N   25346.74960590  .00095318  00000+0  16088-2 0  9990", "line2": "2 66497  42.9982 125.0558 0001647 278.6423  81.4251 15.50614255  5565"}}, "geometry": {"type": "Point", "coordinates": [138.43262301643696, 17.22518502261669]}}, {"type": "Feature", "properties": {"norad_id": 66498, "name": "STARLINK-35907", "group": "last-30-days", "lat": -42.699103660343205, "lon": 21.276088306786995, "alt_km": 446.4525446990756, "timestamp": "2025-12-13T18:50:03.171969+00:00", "meta": {"OBJECT_NAME": "STARLINK-35907", "OBJECT_ID": "2025-263P", "EPOCH": "2025-12-13T06:00:02.000160", "MEAN_MOTION": 15.40696682, "ECCENTRICITY": 0.00014879, "INCLINATION": 43.0001, "RA_OF_ASC_NODE": 122.3776, "ARG_OF_PERICENTER": 265.1397, "MEAN_ANOMALY": 269.543, "EPHEMERIS_TYPE": 0, "CLASSIFICATION_TYPE": "U", "NORAD_CAT_ID": 66498, "ELEMENT_SET_NO": 999, "REV_AT_EPOCH": 571, "BSTAR": -0.00038073565, "MEAN_MOTION_DOT": -0.00016172, "MEAN_MOTION_DDOT": 0}, "tle": {"line1": "1 66498U 25263P   25347.25002315 -.00016172  00000+0 -38074-3 0  9993", "line2": "2 66498  43.0001 122.3776 0001487 265.1397 269.5430 15.40696682  5713"}}, "geometry": {"type": "Point", "coordinates": [21.276088306786995, -42.699103660343205]}}, {"type": "Feature", "properties": {"norad_id": 66499, "name": "STARLINK-35816", "group": "last-30-days", "lat": -35.63374305999337, "lon": 68.91804821706774, "alt_km": 445.96519843680835, "timestamp": "2025-12-13T18:50:03.171982+00:00", "meta": {"OBJECT_NAME": "STARLINK-35816", "OBJECT_ID": "2025-263Q", "EPOCH": "2025-12-13T06:00:02.000160", "MEAN_MOTION": 15.40634413, "ECCENTRICITY": 0.00015874, "INCLINATION": 42.9998, "RA_OF_ASC_NODE": 122.2865, "ARG_OF_PERICENTER": 281.8711, "MEAN_ANOMALY": 290.0447, "EPHEMERIS_TYPE": 0, "CLASSIFICATION_TYPE": "U", "NORAD_CAT_ID": 66499, "ELEMENT_SET_NO": 999, "REV_AT_EPOCH": 571, "BSTAR": 0.0021383694, "MEAN_MOTION_DOT": 0.00089884, "MEAN_MOTION_DDOT": 0}, "tle": {"line1": "1 66499U 25263Q   25347.25002315  .00089884  00000+0  21384-2 0  9997", "line2": "2 66499  42.9998 122.2865 0001587 281.8711 290.0447 15.40634413  5712"}}, "geometry": {"type": "Point", "coordinates": [68.91804821706774, -35.63374305999337]}}, {"type": "Feature", "properties": {"norad_id": 66500, "name": "STARLINK-35894", "group": "last-30-days", "lat": -33.38509878453744, "lon": -15.622689950878053, "alt_km": 456.11155122447053, "timestamp": "2025-12-13T18:50:03.171993+00:00", "meta": {"OBJECT_NAME": "STARLINK-35894", "OBJECT_ID": "2025-263R", "EPOCH": "2025-12-13T06:00:02.000160", "MEAN_MOTION": 15.39328514, "ECCENTRICITY": 0.0001158, "INCLINATION": 42.9997, "RA_OF_ASC_NODE": 122.4402, "ARG_OF_PERICENTER": 254.4824, "MEAN_ANOMALY": 254.5198, "EPHEMERIS_TYPE": 0, "CLASSIFICATION_TYPE": "U", "NORAD_CAT_ID": 66500, "ELEMENT_SET_NO": 999, "REV_AT_EPOCH": 571, "BSTAR": -0.050510667, "MEAN_MOTION_DOT": -0.01815159, "MEAN_MOTION_DDOT": 0}, "tle": {"line1": "1 66500U 25263R   25347.25002315 -.01815159  00000+0 -50511-1 0  9998", "line2": "2 66500  42.9997 122.4402 0001158 254.4824 254.5198 15.39328514  5716"}}, "geometry": {"type": "Point", "coordinates": [-15.622689950878053, -33.38509878453744]}}, {"type": "Feature", "properties": {"norad_id": 66501, "name": "STARLINK-35897", "group": "last-30-days", "lat": -22.25291956752458, "lon": 93.09853293043588, "alt_km": 445.48962632278017, "timestamp": "2025-12-13T18:50:03.172003+00:00", "meta": {"OBJECT_NAME": "STARLINK-35897", "OBJECT_ID": "2025-263S", "EPOCH": "2025-12-13T06:00:02.000160", "MEAN_MOTION": 15.40602639, "ECCENTRICITY": 0.00016679, "INCLINATION": 42.9999, "RA_OF_ASC_NODE": 122.2267, "ARG_OF_PERICENTER": 265.3185, "MEAN_ANOMALY": 331.6105, "EPHEMERIS_TYPE": 0, "CLASSIFICATION_TYPE": "U", "NORAD_CAT_ID": 66501, "ELEMENT_SET_NO": 999, "REV_AT_EPOCH": 571, "BSTAR": 0.0029249178, "MEAN_MOTION_DOT": 0.00123474, "MEAN_MOTION_DDOT": 0}, "tle": {"line1": "1 66501U 25263S   25347.25002315  .00123474  00000+0  29249-2 0  9993", "line2": "2 66501  42.9999 122.2267 0001667 265.3185 331.6105 15.40602639  5712"}}, "geometry": {"type": "Point", "coordinates": [93.09853293043588, -22.25291956752458]}}, {"type": "Feature", "properties": {"norad_id": 66502, "name": "STARLINK-35922", "group": "last-30-days", "lat": 25.522823692687417, "lon": 149.7887550241102, "alt_km": 410.63773562277584, "timestamp": "2025-12-13T18:50:03.172013+00:00", "meta": {"OBJECT_NAME": "STARLINK-35922", "OBJECT_ID": "2025-263T", "EPOCH": "2025-12-12T17:55:58.795392", "MEAN_MOTION": 15.50609171, "ECCENTRICITY": 0.00015478, "INCLINATION": 42.999, "RA_OF_ASC_NODE": 125.0365, "ARG_OF_PERICENTER": 278.8468, "MEAN_ANOMALY": 81.2217, "EPHEMERIS_TYPE": 0, "CLASSIFICATION_TYPE": "U", "NORAD_CAT_ID": 66502, "ELEMENT_SET_NO": 999, "REV_AT_EPOCH": 556, "BSTAR": 0.0018757972, "MEAN_MOTION_DOT": 0.00111401, "MEAN_MOTION_DDOT": 0}, "tle": {"line1": "1 66502U 25263T   25346.74720828  .00111401  00000+0  18758-2 0  9993", "line2": "2 66502  42.9990 125.0365 0001547 278.8468  81.2217 15.50609171  5568"}}, "geometry": {"type": "Point", "coordinates": [149.7887550241102, 25.522823692687417]}}, {"type": "Feature", "properties": {"norad_id": 66503, "name": "STARLINK-35917", "group": "last-30-days", "lat": 2.475128384271488, "lon": 121.71210579260081, "alt_km": 443.05512499865745, "timestamp": "2025-12-13T18:50:03.172023+00:00", "meta": {"OBJECT_NAME": "STARLINK-35917", "OBJECT_ID": "2025-263U", "EPOCH": "2025-12-13T06:00:02.000160", "MEAN_MOTION": 15.43090193, "ECCENTRICITY": 0.0001131, "INCLINATION": 42.9997, "RA_OF_ASC_NODE": 122.1412, "ARG_OF_PERICENTER": 266.4415, "MEAN_ANOMALY": 5.4154, "EPHEMERIS_TYPE": 0, "CLASSIFICATION_TYPE": "U", "NORAD_CAT_ID": 66503, "ELEMENT_SET_NO": 999, "REV_AT_EPOCH": 571, "BSTAR": -0.048787577, "MEAN_MOTION_DOT": -0.01970866, "MEAN_MOTION_DDOT": 0}, "tle": {"line1": "1 66503U 25263U   25347.25002315 -.01970866  00000+0 -48788-1 0  9991", "line2": "2 66503  42.9997 122.1412 0001131 266.4415   5.4154 15.43090193  5716"}}, "geometry": {"type": "Point", "coordinates": [121.71210579260081, 2.475128384271488]}}]}